
STARLINK-6333           
1 56521U 23065U   25031.85695249  .00000286  00000+0  36273-4 0  9994
2 56521  43.0028 233.3572 0001122 273.4841  86.5873 15.02534451 95403
STARLINK-6327           
1 56522U 23065V   25031.61546072  .00000485  00000+0  50944-4 0  9990
2 56522  43.0025 234.9878 0001359 271.2242  88.8444 15.02532836 96146
STARLINK-6328           
1 56523U 23065W   25031.26309341 -.00000712  00000+0 -37668-4 0  9991
2 56523  43.0038 236.6423 0001622 263.9359  96.1298 15.02530465 96095
STARLINK-6323           
1 56524U 23065X   25031.60435044  .00007934  00000+0  60232-3 0  9993
2 56524  42.9947 234.8978 0000977 119.1012 240.9928 15.02499225 95364
STARLINK-6329           
1 56525U 23065Y   25031.85472582  .00001566  00000+0  13092-3 0  9996
2 56525  43.0022 233.3483 0001112 270.4521  89.6194 15.02540542 95401
STARLINK-6317           
1 56526U 23065Z   25031.59769868  .00001114  00000+0  97557-4 0  9992
2 56526  43.0025 234.8518 0001321 266.9273  93.1418 15.02534776 96149
STARLINK-6335           
1 56527U 23065AA  25031.85584470  .00000019  00000+0  16439-4 0  9999
2 56527  43.0012 233.3507 0001061 267.6541  92.4180 15.02529332 95403
STARLINK-6337           
1 56528U 23065AB  25031.85806915  .00002159  00000+0  17483-3 0  9997
2 56528  43.0025 233.3629 0001371 268.1374  91.9311 15.02543059 95409
STARLINK-6307           
1 56529U 23065AC  25031.51496725 -.00001598  00000+0 -10325-3 0  9991
2 56529  43.0065 222.9375 0002222 267.1982  92.8606 15.02516660 96277
STARLINK-6318           
1 56530U 23065AD  25031.50298993  .00000775  00000+0  72426-4 0  9994
2 56530  43.0015 209.8307 0001063 271.6766  88.3955 15.02535039 96420
STARLINK-6280           
1 56531U 23065AE  25031.57809820  .00000148  00000+0  25995-4 0  9992
2 56531  43.0020 222.5528 0001158 267.0634  93.0076 15.02533853 96285
STARLINK-6319           
1 56532U 23065AF  25031.58808147  .00000521  00000+0  53644-4 0  9992
2 56532  43.0014 222.6286 0001129 272.2915  87.7798 15.02535544 96289
STARLINK-6310           
1 56533U 23065AG  25031.57143485  .00000350  00000+0  40982-4 0  9990
2 56533  43.0017 222.5021 0001200 273.2729  86.7976 15.02531610 96280
STARLINK-6308           
1 56534U 23065AH  25031.58475827 -.00000140  00000+0  47231-5 0  9993
2 56534  43.0016 222.6024 0001266 269.9747  90.0950 15.02529140 96283
STARLINK-6309           
1 56535U 23065AJ  25031.63740423  .00000549  00000+0  55743-4 0  9995
2 56535  43.0022 248.1722 0001084 267.6674  92.4044 15.02535000 95990
STARLINK-6312           
1 56536U 23065AK  25031.56426509  .00000814  00000+0  75345-4 0  9999
2 56536  43.0025 248.4855 0001177 268.0150  92.0558 15.02541513 95207
STARLINK-6311           
1 56537U 23065AL  25031.63406948  .00000290  00000+0  36547-4 0  9992
2 56537  43.0023 248.1426 0001244 272.3645  87.7055 15.02538722 95996
STARLINK-6314           
1 56538U 23065AM  25031.81440902  .00005856  00000+0  45754-3 0  9993
2 56538  43.0021 220.8855 0001155 272.0191  88.0519 15.01749193 95547
STARLINK-6135           
1 56539U 23065AN  25031.62409849 -.00000083  00000+0  89449-5 0  9997
2 56539  43.0032 248.0719 0001374 275.8511  84.2175 15.02522491 95997
STARLINK-6136           
1 56540U 23065AP  25031.63117818  .00012093  00000+0  88948-3 0  9996
2 56540  43.0002 248.1262 0001755 271.0165  89.0476 15.03346814 95997
STARLINK-6249           
1 56541U 23065AQ  25031.28949052 -.00001370  00000+0 -86347-4 0  9991
2 56541  43.0042 249.8534 0002660 263.8625  96.1915 15.02519366 95943
STARLINK-6266           
1 56542U 23065AR  25031.62740035  .00000263  00000+0  34521-4 0  9995
2 56542  43.0035 248.0906 0001306 282.4868  77.5828 15.02522226 95217
STARLINK-6228           
1 56543U 23065AS  25031.58334491  .01244673  00000+0  55077-1 0  9998
2 56543  43.0007 247.3465 0001615 247.3038 292.2870 15.17883725  5721
STARLINK-6226           
1 56544U 23065AT  25030.61603299  .00002413  00000+0  18956-3 0  9997
2 56544  43.0044 253.4045 0002260 269.8077  90.2507 15.03362372 95068
STARLINK-6086           
1 56545U 23065AU  25031.01246262  .00000108  00000+0  23044-4 0  9990
2 56545  43.0035 251.2170 0001307 260.7218  99.3476 15.02535925 95905
STARLINK-6187           
1 56546U 23065AV  25031.61855126  .00001283  00000+0  11000-3 0  9995
2 56546  43.0026 248.0293 0001694 268.9297  91.1351 15.02538482 95994
STARLINK-6291           
1 56547U 23065AW  25031.86181029  .00000572  00000+0  56295-4 0  9993
2 56547  43.0018 246.4124 0001146 272.2277  87.8434 15.03344939 95255
STARLINK-6244           
1 56548U 23065AX  25031.61409146  .00000308  00000+0  37903-4 0  9992
2 56548  43.0019 247.9913 0001072 271.9996  88.0723 15.02533495 95992
STARLINK-6263           
1 56549U 23065AY  25031.59855232  .00000833  00000+0  76739-4 0  9994
2 56549  43.0025 247.8738 0001271 265.4894  94.5803 15.02536821 95997
STARLINK-6255           
1 56550U 23065AZ  25031.00915182 -.00000050  00000+0  11360-4 0  9994
2 56550  43.0015 251.1918 0001238 267.6734  92.3967 15.02530082 95907
STARLINK-6199           
1 56551U 23065BA  25031.32820212 -.00001306  00000+0 -81657-4 0  9991
2 56551  43.0008 249.2853 0000765 278.5679  81.5077 15.02528098 95950
STARLINK-5802           
1 56552U 23065BB  25031.00247276  .00000207  00000+0  30356-4 0  9997
2 56552  43.0022 251.1416 0001177 267.8060  92.2648 15.02536395 95904
STARLINK-6074           
1 56553U 23065BC  25031.85669757  .00000624  00000+0  61262-4 0  9996
2 56553  43.0028 246.3707 0001309 272.3342  87.7351 15.02534832 95253
STARLINK-6295           
1 56554U 23065BD  25031.86113993  .00000010  00000+0  15802-4 0  9992
2 56554  43.0025 246.4028 0001200 258.9931 101.0777 15.02533507 95252
STARLINK-6252           
1 56555U 23065BE  25031.31821272  .00000772  00000+0  72178-4 0  9993
2 56555  43.0027 249.2105 0001236 269.2974  90.7726 15.02536727 95955
STARLINK-5302           
1 56556U 23065BF  25031.85337774  .00000198  00000+0  29726-4 0  9995
2 56556  42.9918 246.3443 0000899  86.5861 273.5084 15.02539208 95253
STARLINK-6265           
1 56557U 23065BG  25031.31489515  .00002209  00000+0  17853-3 0  9990
2 56557  43.0027 249.1841 0001061 272.3379  87.7342 15.02537199 95957
STARLINK-6286           
1 56558U 23065BH  25031.85459252  .00000366  00000+0  42987-4 0  9994
2 56558  43.0024 246.3505 0001137 260.4065  99.6649 15.01721197 95252
BEIDOU-3 G4             
1 56564U 23066A   25031.57207507 -.00000105  00000+0  00000+0 0  9992
2 56564   1.5564 289.6776 0002261 255.3880 311.9105  1.00272035  6361
STARLINK-30122          
1 56688U 23067A   25031.43243782  .00002198  00000+0  17771-3 0  9990
2 56688  43.0038 300.7398 0001026 270.2776  89.7949 15.02541170 95212
STARLINK-30129          
1 56689U 23067B   25031.42244276  .00000530  00000+0  54323-4 0  9992
2 56689  43.0037 300.6720 0001273 253.5083 106.5619 15.02533877 95148
STARLINK-30124          
1 56690U 23067C   25031.08669512 -.00021329  00000+0 -15652-2 0  9991
2 56690  43.0040 302.4619 0001700 254.1550 105.9105 15.02617241 95097
STARLINK-30036          
1 56692U 23067E   25031.14654612  .00000080  00000+0  21001-4 0  9991
2 56692  43.0059 302.0679 0001743 256.2917 103.7731 15.02532008 93971
STARLINK-30067          
1 56693U 23067F   25031.80466445  .00006472  00000+0  49363-3 0  9991
2 56693  43.0053 298.4062 0001119 245.7140 114.3586 15.02543233 94359
STARLINK-30126          
1 56694U 23067G   25031.14322741  .00001545  00000+0  12944-3 0  9990
2 56694  43.0035 302.0457 0001133 270.2764  89.7949 15.02527334 95107
STARLINK-30121          
1 56695U 23067H   25031.46894786  .00001439  00000+0  12159-3 0  9999
2 56695  43.0036 300.1682 0001284 269.6629  90.4066 15.02531222 95152
STARLINK-30130          
1 56697U 23067K   25031.44231257  .00003358  00000+0  26364-3 0  9992
2 56697  43.0033 299.9850 0001058 262.8247  97.2475 15.02517152 94898
STARLINK-30068          
1 56698U 23067L   25031.11683766  .00001138  00000+0  99327-4 0  9997
2 56698  43.0051 288.8527 0001183 262.0201  98.0507 15.02534053 94993
STARLINK-30127          
1 56699U 23067M   25031.46560110 -.00000198  00000+0  39109-6 0  9993
2 56699  43.0023 300.1626 0001652 264.1653  95.9001 15.02561524 95153
STARLINK-30053          
1 56700U 23067N   25031.46228376  .00002569  00000+0  20511-3 0  9998
2 56700  43.0022 300.1404 0001606 272.5513  87.5145 15.02546917 95151
STARLINK-30125          
1 56701U 23067P   25031.45896243  .00000457  00000+0  48925-4 0  9996
2 56701  43.0047 300.1143 0001276 268.1832  91.8864 15.02531682 95156
STARLINK-30117          
1 56702U 23067Q   25031.42909560  .00002979  00000+0  23558-3 0  9996
2 56702  43.0033 300.6828 0001509 271.6295  88.4375 15.02525725 95147
STARLINK-30132          
1 56703U 23067R   25031.72153801  .00002952  00000+0  23353-3 0  9993
2 56703  43.0035 298.6349 0001118 276.8538  83.2177 15.02535120 94341
STARLINK-30066          
1 56704U 23067S   25031.76803819  .00002646  00000+0  21090-3 0  9995
2 56704  43.0011 298.1126 0001376 263.4009  96.6677 15.02530167 94355
STARLINK-30080          
1 56705U 23067T   25031.71181750  .00000219  00000+0  31295-4 0  9997
2 56705  43.0032 285.6398 0001256 260.3197  99.7504 15.02536274 94495
STARLINK-30079          
1 56706U 23067U   25031.44897356  .00000480  00000+0  50625-4 0  9992
2 56706  43.0054 300.0348 0001219 267.8024  92.2679 15.02531229 95157
STARLINK-30070          
1 56707U 23067V   25031.45229064 -.00005572  00000+0 -39748-3 0  9990
2 56707  43.0040 300.0609 0001395 270.2578  89.8105 15.02560505 95155
STARLINK-30071          
1 56708U 23067W   25031.43897884  .00001668  00000+0  13853-3 0  9999
2 56708  43.0043 299.9606 0001121 272.8923  87.1791 15.02536544 95159
